[{"OBJECT_NAME":"ONEWEB-0120","OBJECT_ID":"2020-100J","EPOCH":"2026-04-09T03:47:38.728032","MEAN_MOTION":13.12442602,"ECCENTRICITY":0.0001798,"INCLINATION":87.9006,"RA_OF_ASC_NODE":4.3852,"ARG_OF_PERICENTER":75.7434,"MEAN_ANOMALY":284.3895,"EPHEMERIS_TYPE":0,"CLASSIFICATION_TYPE":"U","NORAD_CAT_ID":47266,"ELEMENT_SET_NO":999,"REV_AT_EPOCH":25567,"BSTAR":-0.00067202,"MEAN_MOTION_DOT":-2.29e-06,"MEAN_MOTION_DDOT":0.0},{"OBJECT_NAME":"ONEWEB-0121","OBJECT_ID":"2020-100K","EPOCH":"2026-04-09T03:30:22.088736","MEAN_MOTION":13.12441193,"ECCENTRICITY":0.0001962,"INCLINATION":87.9017,"RA_OF_ASC_NODE":4.3667,"ARG_OF_PERICENTER":82.4424,"MEAN_ANOMALY":277.6928,"EPHEMERIS_TYPE":0,"CLASSIFICATION_TYPE":"U","NORAD_CAT_ID":47267,"ELEMENT_SET_NO":999,"REV_AT_EPOCH":25558,"BSTAR":-0.0012033,"MEAN_MOTION_DOT":-4.2e-06,"MEAN_MOTION_DDOT":0.0},{"OBJECT_NAME":"ONEWEB-0122","OBJECT_ID":"2020-100L","EPOCH":"2026-04-09T07:01:24.066624","MEAN_MOTION":13.12441591,"ECCENTRICITY":0.0001932,"INCLINATION":87.9017,"RA_OF_ASC_NODE":4.341,"ARG_OF_PERICENTER":75.315,"MEAN_ANOMALY":284.8192,"EPHEMERIS_TYPE":0,"CLASSIFICATION_TYPE":"U","NORAD_CAT_ID":47268,"ELEMENT_SET_NO":999,"REV_AT_EPOCH":25551,"BSTAR":-0.00093804,"MEAN_MOTION_DOT":-3.25e-06,"MEAN_MOTION_DDOT":0.0},{"OBJECT_NAME":"ONEWEB-0123","OBJECT_ID":"2020-100M","EPOCH":"2026-04-09T06:55:17.871456","MEAN_MOTION":13.12440919,"ECCENTRICITY":0.0001669,"INCLINATION":87.9005,"RA_OF_ASC_NODE":4.3572,"ARG_OF_PERICENTER":78.5239,"MEAN_ANOMALY":281.6077,"EPHEMERIS_TYPE":0,"CLASSIFICATION_TYPE":"U","NORAD_CAT_ID":47269,"ELEMENT_SET_NO":999,"REV_AT_EPOCH":25565,"BSTAR":-0.0005873699999999999,"MEAN_MOTION_DOT":-1.99e-06,"MEAN_MOTION_DDOT":0.0},{"OBJECT_NAME":"ONEWEB-0124","OBJECT_ID":"2020-100N","EPOCH":"2026-04-09T06:40:40.286784","MEAN_MOTION":13.12441041,"ECCENTRICITY":0.0001789,"INCLINATION":87.9002,"RA_OF_ASC_NODE":4.3636,"ARG_OF_PERICENTER":83.098,"MEAN_ANOMALY":277.0352,"EPHEMERIS_TYPE":0,"CLASSIFICATION_TYPE":"U","NORAD_CAT_ID":47270,"ELEMENT_SET_NO":999,"REV_AT_EPOCH":25553,"BSTAR":0.00039789999999999997,"MEAN_MOTION_DOT":1.56e-06,"MEAN_MOTION_DDOT":0.0},{"OBJECT_NAME":"ONEWEB-0125","OBJECT_ID":"2020-100P","EPOCH":"2026-04-09T06:08:58.329024","MEAN_MOTION":13.12442033,"ECCENTRICITY":0.0001612,"INCLINATION":87.9016,"RA_OF_ASC_NODE":4.3432,"ARG_OF_PERICENTER":88.4418,"MEAN_ANOMALY":271.6895,"EPHEMERIS_TYPE":0,"CLASSIFICATION_TYPE":"U","NORAD_CAT_ID":47271,"ELEMENT_SET_NO":999,"REV_AT_EPOCH":25559,"BSTAR":0.0013804,"MEAN_MOTION_DOT":5.09e-06,"MEAN_MOTION_DDOT":0.0},{"OBJECT_NAME":"ONEWEB-0126","OBJECT_ID":"2020-100Q","EPOCH":"2026-04-09T06:38:25.942560","MEAN_MOTION":13.12440918,"ECCENTRICITY":0.0001771,"INCLINATION":87.9007,"RA_OF_ASC_NODE":4.3596,"ARG_OF_PERICENTER":74.3047,"MEAN_ANOMALY":285.8277,"EPHEMERIS_TYPE":0,"CLASSIFICATION_TYPE":"U","NORAD_CAT_ID":47272,"ELEMENT_SET_NO":999,"REV_AT_EPOCH":25566,"BSTAR":0.00062175,"MEAN_MOTION_DOT":2.36e-06,"MEAN_MOTION_DDOT":0.0},{"OBJECT_NAME":"ONEWEB-0127","OBJECT_ID":"2020-100R","EPOCH":"2026-04-09T03:59:40.193088","MEAN_MOTION":13.12443279,"ECCENTRICITY":0.0001839,"INCLINATION":87.9002,"RA_OF_ASC_NODE":4.3835,"ARG_OF_PERICENTER":74.5188,"MEAN_ANOMALY":285.6144,"EPHEMERIS_TYPE":0,"CLASSIFICATION_TYPE":"U","NORAD_CAT_ID":47273,"ELEMENT_SET_NO":999,"REV_AT_EPOCH":25567,"BSTAR":0.00029268,"MEAN_MOTION_DOT":1.18e-06,"MEAN_MOTION_DDOT":0.0},{"OBJECT_NAME":"ONEWEB-0128","OBJECT_ID":"2020-100S","EPOCH":"2026-04-09T06:21:09.883008","MEAN_MOTION":13.12441229,"ECCENTRICITY":0.0002088,"INCLINATION":87.9004,"RA_OF_ASC_NODE":4.3781,"ARG_OF_PERICENTER":82.6659,"MEAN_ANOMALY":277.4706,"EPHEMERIS_TYPE":0,"CLASSIFICATION_TYPE":"U","NORAD_CAT_ID":47274,"ELEMENT_SET_NO":999,"REV_AT_EPOCH":25570,"BSTAR":0.0010696,"MEAN_MOTION_DOT":3.98e-06,"MEAN_MOTION_DDOT":0.0},{"OBJECT_NAME":"ONEWEB-0129","OBJECT_ID":"2020-100T","EPOCH":"2026-04-09T04:02:05.889408","MEAN_MOTION":13.12442118,"ECCENTRICITY":0.0002147,"INCLINATION":87.9016,"RA_OF_ASC_NODE":4.3637,"ARG_OF_PERICENTER":46.8104,"MEAN_ANOMALY":313.3203,"EPHEMERIS_TYPE":0,"CLASSIFICATION_TYPE":"U","NORAD_CAT_ID":47275,"ELEMENT_SET_NO":999,"REV_AT_EPOCH":25562,"BSTAR":0.00038792,"MEAN_MOTION_DOT":1.52e-06,"MEAN_MOTION_DDOT":0.0},{"OBJECT_NAME":"ONEWEB-0130","OBJECT_ID":"2020-100U","EPOCH":"2026-04-09T06:30:55.128096","MEAN_MOTION":13.12441561,"ECCENTRICITY":0.000188,"INCLINATION":87.9015,"RA_OF_ASC_NODE":4.3379,"ARG_OF_PERICENTER":76.3355,"MEAN_ANOMALY":283.7983,"EPHEMERIS_TYPE":0,"CLASSIFICATION_TYPE":"U","NORAD_CAT_ID":47276,"ELEMENT_SET_NO":999,"REV_AT_EPOCH":25560,"BSTAR":0.0009448999999999999,"MEAN_MOTION_DOT":3.53e-06,"MEAN_MOTION_DDOT":0.0},{"OBJECT_NAME":"ONEWEB-0131","OBJECT_ID":"2020-100V","EPOCH":"2026-04-09T06:26:02.524992","MEAN_MOTION":13.12441306,"ECCENTRICITY":0.0001835,"INCLINATION":87.9004,"RA_OF_ASC_NODE":4.3644,"ARG_OF_PERICENTER":78.133,"MEAN_ANOMALY":282.0005,"EPHEMERIS_TYPE":0,"CLASSIFICATION_TYPE":"U","NORAD_CAT_ID":47277,"ELEMENT_SET_NO":999,"REV_AT_EPOCH":25564,"BSTAR":0.0013116,"MEAN_MOTION_DOT":4.85e-06,"MEAN_MOTION_DDOT":0.0},{"OBJECT_NAME":"ONEWEB-0132","OBJECT_ID":"2020-100W","EPOCH":"2026-04-09T03:27:56.071008","MEAN_MOTION":13.12441527,"ECCENTRICITY":0.0001874,"INCLINATION":87.9007,"RA_OF_ASC_NODE":4.3885,"ARG_OF_PERICENTER":80.7378,"MEAN_ANOMALY":279.3963,"EPHEMERIS_TYPE":0,"CLASSIFICATION_TYPE":"U","NORAD_CAT_ID":47278,"ELEMENT_SET_NO":999,"REV_AT_EPOCH":25552,"BSTAR":-0.00099193,"MEAN_MOTION_DOT":-3.44e-06,"MEAN_MOTION_DDOT":0.0},{"OBJECT_NAME":"ONEWEB-0133","OBJECT_ID":"2020-100X","EPOCH":"2026-04-09T03:52:08.492160","MEAN_MOTION":13.12443383,"ECCENTRICITY":0.0001947,"INCLINATION":87.9018,"RA_OF_ASC_NODE":4.3535,"ARG_OF_PERICENTER":81.2524,"MEAN_ANOMALY":278.8825,"EPHEMERIS_TYPE":0,"CLASSIFICATION_TYPE":"U","NORAD_CAT_ID":47279,"ELEMENT_SET_NO":999,"REV_AT_EPOCH":25568,"BSTAR":-0.00025929,"MEAN_MOTION_DOT":-8.1e-07,"MEAN_MOTION_DDOT":0.0},{"OBJECT_NAME":"ONEWEB-0134","OBJECT_ID":"2020-100Y","EPOCH":"2026-04-09T06:47:59.067456","MEAN_MOTION":13.12441043,"ECCENTRICITY":0.0002041,"INCLINATION":87.9018,"RA_OF_ASC_NODE":4.3265,"ARG_OF_PERICENTER":75.0105,"MEAN_ANOMALY":285.1249,"EPHEMERIS_TYPE":0,"CLASSIFICATION_TYPE":"U","NORAD_CAT_ID":47280,"ELEMENT_SET_NO":999,"REV_AT_EPOCH":25567,"BSTAR":-7.8038e-05,"MEAN_MOTION_DOT":-1.5e-07,"MEAN_MOTION_DDOT":0.0},{"OBJECT_NAME":"ONEWEB-0135","OBJECT_ID":"2020-100Z","EPOCH":"2026-04-09T06:06:31.654656","MEAN_MOTION":13.12442099,"ECCENTRICITY":0.0002121,"INCLINATION":87.9004,"RA_OF_ASC_NODE":4.3639,"ARG_OF_PERICENTER":77.1896,"MEAN_ANOMALY":282.9469,"EPHEMERIS_TYPE":0,"CLASSIFICATION_TYPE":"U","NORAD_CAT_ID":47281,"ELEMENT_SET_NO":999,"REV_AT_EPOCH":25569,"BSTAR":0.0013611,"MEAN_MOTION_DOT":5.02e-06,"MEAN_MOTION_DDOT":0.0},{"OBJECT_NAME":"ONEWEB-0136","OBJECT_ID":"2020-100AA","EPOCH":"2026-04-09T06:33:21.881952","MEAN_MOTION":13.12441595,"ECCENTRICITY":0.0002068,"INCLINATION":87.9012,"RA_OF_ASC_NODE":4.336,"ARG_OF_PERICENTER":72.899,"MEAN_ANOMALY":287.2365,"EPHEMERIS_TYPE":0,"CLASSIFICATION_TYPE":"U","NORAD_CAT_ID":47282,"ELEMENT_SET_NO":999,"REV_AT_EPOCH":25562,"BSTAR":0.00072141,"MEAN_MOTION_DOT":2.72e-06,"MEAN_MOTION_DDOT":0.0}]