ONEWEB-0120             
1 47266U 20100J   26099.15808713 -.00000229  00000+0 -67202-3 0  9991
2 47266  87.9006   4.3852 0001798  75.7434 284.3895 13.12442602255673
ONEWEB-0121             
1 47267U 20100K   26099.14608899 -.00000420  00000+0 -12033-2 0  9998
2 47267  87.9017   4.3667 0001962  82.4424 277.6928 13.12441193255583
ONEWEB-0122             
1 47268U 20100L   26099.29263966 -.00000325  00000+0 -93804-3 0  9997
2 47268  87.9017   4.3410 0001932  75.3150 284.8192 13.12441591255512
ONEWEB-0123             
1 47269U 20100M   26099.28840129 -.00000199  00000+0 -58737-3 0  9994
2 47269  87.9005   4.3572 0001669  78.5239 281.6077 13.12440919255654
ONEWEB-0124             
1 47270U 20100N   26099.27824406  .00000156  00000+0  39790-3 0  9994
2 47270  87.9002   4.3636 0001789  83.0980 277.0352 13.12441041255530
ONEWEB-0125             
1 47271U 20100P   26099.25623066  .00000509  00000+0  13804-2 0  9991
2 47271  87.9016   4.3432 0001612  88.4418 271.6895 13.12442033255590
ONEWEB-0126             
1 47272U 20100Q   26099.27668915  .00000236  00000+0  62175-3 0  9999
2 47272  87.9007   4.3596 0001771  74.3047 285.8277 13.12440918255669
ONEWEB-0127             
1 47273U 20100R   26099.16643742  .00000118  00000+0  29268-3 0  9994
2 47273  87.9002   4.3835 0001839  74.5188 285.6144 13.12443279255679
ONEWEB-0128             
1 47274U 20100S   26099.26469772  .00000398  00000+0  10696-2 0  9999
2 47274  87.9004   4.3781 0002088  82.6659 277.4706 13.12441229255702
ONEWEB-0129             
1 47275U 20100T   26099.16812372  .00000152  00000+0  38792-3 0  9993
2 47275  87.9016   4.3637 0002147  46.8104 313.3203 13.12442118255620
ONEWEB-0130             
1 47276U 20100U   26099.27147139  .00000353  00000+0  94490-3 0  9998
2 47276  87.9015   4.3379 0001880  76.3355 283.7983 13.12441561255606
ONEWEB-0131             
1 47277U 20100V   26099.26808478  .00000485  00000+0  13116-2 0  9999
2 47277  87.9004   4.3644 0001835  78.1330 282.0005 13.12441306255641
ONEWEB-0132             
1 47278U 20100W   26099.14439897 -.00000344  00000+0 -99193-3 0  9998
2 47278  87.9007   4.3885 0001874  80.7378 279.3963 13.12441527255520
ONEWEB-0133             
1 47279U 20100X   26099.16120940 -.00000081  00000+0 -25929-3 0  9991
2 47279  87.9018   4.3535 0001947  81.2524 278.8825 13.12443383255685
ONEWEB-0134             
1 47280U 20100Y   26099.28332254 -.00000015  00000+0 -78038-4 0  9996
2 47280  87.9018   4.3265 0002041  75.0105 285.1249 13.12441043255670
ONEWEB-0135             
1 47281U 20100Z   26099.25453304  .00000502  00000+0  13611-2 0  9997
2 47281  87.9004   4.3639 0002121  77.1896 282.9469 13.12442099255693
ONEWEB-0136             
1 47282U 20100AA  26099.27316993  .00000272  00000+0  72141-3 0  9990
2 47282  87.9012   4.3360 0002068  72.8990 287.2365 13.12441595255627
